{
  "type": "FeatureCollection",
  "features": [
    {
      "type": "Feature",
      "properties": {
        "norad_id": 44333,
        "name": "AT&T T-16",
        "group": "intelsat",
        "lat": 0.01351095154609122,
        "lon": 67.02410292390482,
        "alt_km": 35786.280466610144,
        "timestamp": "2025-12-13T05:42:57.166208+00:00",
        "meta_object_name": "AT&T T-16",
        "meta_object_id": "2019-034A",
        "meta_epoch": "2025-12-11T21:35:28.635072",
        "meta_mean_motion": 1.0027134,
        "meta_eccentricity": 7.8e-05,
        "meta_inclination": 0.0303,
        "meta_ra_of_asc_node": 77.076,
        "meta_arg_of_pericenter": 80.9177,
        "meta_mean_anomaly": 145.8602,
        "meta_ephemeris_type": 0,
        "meta_classification_type": "U",
        "meta_norad_cat_id": 44333,
        "meta_element_set_no": 999,
        "meta_rev_at_epoch": 2375,
        "meta_bstar": 0,
        "meta_mean_motion_dot": -1.07e-06,
        "meta_mean_motion_ddot": 0,
        "tle_line1": "1 44333U 19034A   25345.89963698 -.00000107  00000+0  00000+0 0  9998",
        "tle_line2": "2 44333   0.0303  77.0760 0000780  80.9177 145.8602  1.00271340 23750"
      },
      "geometry": {
        "type": "Point",
        "coordinates": [
          67.02410292390482,
          0.01351095154609122
        ]
      }
    },
    {
      "type": "Feature",
      "properties": {
        "norad_id": 44476,
        "name": "INTELSAT 39 (IS-39)",
        "group": "intelsat",
        "lat": -0.03518414652602391,
        "lon": -130.155290580597,
        "alt_km": 35787.50854159819,
        "timestamp": "2025-12-13T05:42:57.166220+00:00",
        "meta_object_name": "INTELSAT 39 (IS-39)",
        "meta_object_id": "2019-049B",
        "meta_epoch": "2025-12-11T23:25:15.903264",
        "meta_mean_motion": 1.00267474,
        "meta_eccentricity": 0.0001157,
        "meta_inclination": 0.0183,
        "meta_ra_of_asc_node": 320.2601,
        "meta_arg_of_pericenter": 176.2508,
        "meta_mean_anomaly": 357.6803,
        "meta_ephemeris_type": 0,
        "meta_classification_type": "U",
        "meta_norad_cat_id": 44476,
        "meta_element_set_no": 999,
        "meta_rev_at_epoch": 2325,
        "meta_bstar": 0,
        "meta_mean_motion_dot": 4.3e-07,
        "meta_mean_motion_ddot": 0,
        "tle_line1": "1 44476U 19049B   25345.97587851  .00000043  00000+0  00000+0 0  9992",
        "tle_line2": "2 44476   0.0183 320.2601 0001157 176.2508 357.6803  1.00267474 23251"
      },
      "geometry": {
        "type": "Point",
        "coordinates": [
          -130.155290580597,
          -0.03518414652602391
        ]
      }
    },
    {
      "type": "Feature",
      "properties": {
        "norad_id": 46114,
        "name": "GALAXY 30 (G-30)",
        "group": "intelsat",
        "lat": 0.029626195442908444,
        "lon": 42.92635488363553,
        "alt_km": 35793.15405611197,
        "timestamp": "2025-12-13T05:42:57.166232+00:00",
        "meta_object_name": "GALAXY 30 (G-30)",
        "meta_object_id": "2020-056C",
        "meta_epoch": "2025-12-12T06:02:16.423008",
        "meta_mean_motion": 1.00272766,
        "meta_eccentricity": 0.00022451,
        "meta_inclination": 0.0132,
        "meta_ra_of_asc_node": 333.7243,
        "meta_arg_of_pericenter": 287.9124,
        "meta_mean_anomaly": 145.1344,
        "meta_ephemeris_type": 0,
        "meta_classification_type": "U",
        "meta_norad_cat_id": 46114,
        "meta_element_set_no": 999,
        "meta_rev_at_epoch": 1941,
        "meta_bstar": 0,
        "meta_mean_motion_dot": 4.6e-07,
        "meta_mean_motion_ddot": 0,
        "tle_line1": "1 46114U 20056C   25346.25157897  .00000046  00000+0  00000+0 0  9991",
        "tle_line2": "2 46114   0.0132 333.7243 0002245 287.9124 145.1344  1.00272766 19413"
      },
      "geometry": {
        "type": "Point",
        "coordinates": [
          42.92635488363553,
          0.029626195442908444
        ]
      }
    },
    {
      "type": "Feature",
      "properties": {
        "norad_id": 54026,
        "name": "GALAXY 33 (G-33)",
        "group": "intelsat",
        "lat": 0.026707591145441585,
        "lon": 34.91922188406883,
        "alt_km": 35792.6775656401,
        "timestamp": "2025-12-13T05:42:57.166244+00:00",
        "meta_object_name": "GALAXY 33 (G-33)",
        "meta_object_id": "2022-128A",
        "meta_epoch": "2025-12-11T16:18:14.016960",
        "meta_mean_motion": 1.00271184,
        "meta_eccentricity": 0.0002031,
        "meta_inclination": 0.0122,
        "meta_ra_of_asc_node": 329.7994,
        "meta_arg_of_pericenter": 285.1983,
        "meta_mean_anomaly": 297.1989,
        "meta_ephemeris_type": 0,
        "meta_classification_type": "U",
        "meta_norad_cat_id": 54026,
        "meta_element_set_no": 999,
        "meta_rev_at_epoch": 1186,
        "meta_bstar": 0,
        "meta_mean_motion_dot": 8.7e-07,
        "meta_mean_motion_ddot": 0,
        "tle_line1": "1 54026U 22128A   25345.67932890  .00000087  00000+0  00000+0 0  9998",
        "tle_line2": "2 54026   0.0122 329.7994 0002031 285.1983 297.1989  1.00271184 11864"
      },
      "geometry": {
        "type": "Point",
        "coordinates": [
          34.91922188406883,
          0.026707591145441585
        ]
      }
    },
    {
      "type": "Feature",
      "properties": {
        "norad_id": 54027,
        "name": "GALAXY 34 (G-34)",
        "group": "intelsat",
        "lat": 0.03543017360327483,
        "lon": 38.97212216771463,
        "alt_km": 35791.46310302763,
        "timestamp": "2025-12-13T05:42:57.166256+00:00",
        "meta_object_name": "GALAXY 34 (G-34)",
        "meta_object_id": "2022-128B",
        "meta_epoch": "2025-12-11T16:19:21.409824",
        "meta_mean_motion": 1.00269841,
        "meta_eccentricity": 0.0001404,
        "meta_inclination": 0.0224,
        "meta_ra_of_asc_node": 340.3184,
        "meta_arg_of_pericenter": 271.9035,
        "meta_mean_anomaly": 304.3231,
        "meta_ephemeris_type": 0,
        "meta_classification_type": "U",
        "meta_norad_cat_id": 54027,
        "meta_element_set_no": 999,
        "meta_rev_at_epoch": 1203,
        "meta_bstar": 0,
        "meta_mean_motion_dot": 0,
        "meta_mean_motion_ddot": 0,
        "tle_line1": "1 54027U 22128B   25345.68010891  .00000000  00000+0  00000+0 0  9993",
        "tle_line2": "2 54027   0.0224 340.3184 0001404 271.9035 304.3231  1.00269841 12030"
      },
      "geometry": {
        "type": "Point",
        "coordinates": [
          38.97212216771463,
          0.03543017360327483
        ]
      }
    },
    {
      "type": "Feature",
      "properties": {
        "norad_id": 54243,
        "name": "GALAXY 31 (G-31)",
        "group": "intelsat",
        "lat": 0.02153123616544137,
        "lon": 46.920619213290074,
        "alt_km": 35791.182511193336,
        "timestamp": "2025-12-13T05:42:57.166268+00:00",
        "meta_object_name": "GALAXY 31 (G-31)",
        "meta_object_id": "2022-153A",
        "meta_epoch": "2025-12-12T06:03:23.815008",
        "meta_mean_motion": 1.00271471,
        "meta_eccentricity": 0.00016914,
        "meta_inclination": 0.0142,
        "meta_ra_of_asc_node": 275.9057,
        "meta_arg_of_pericenter": 356.0007,
        "meta_mean_anomaly": 139.1476,
        "meta_ephemeris_type": 0,
        "meta_classification_type": "U",
        "meta_norad_cat_id": 54243,
        "meta_element_set_no": 999,
        "meta_rev_at_epoch": 525,
        "meta_bstar": 0,
        "meta_mean_motion_dot": 2.3e-07,
        "meta_mean_motion_ddot": 0,
        "tle_line1": "1 54243U 22153A   25346.25235897  .00000023  00000+0  00000+0 0  9995",
        "tle_line2": "2 54243   0.0142 275.9057 0001691 356.0007 139.1476  1.00271471  5256"
      },
      "geometry": {
        "type": "Point",
        "coordinates": [
          46.920619213290074,
          0.02153123616544137
        ]
      }
    },
    {
      "type": "Feature",
      "properties": {
        "norad_id": 54244,
        "name": "GALAXY 32 (G-32)",
        "group": "intelsat",
        "lat": 0.0265763570212366,
        "lon": 76.91081754152482,
        "alt_km": 35793.0796981637,
        "timestamp": "2025-12-13T05:42:57.166280+00:00",
        "meta_object_name": "GALAXY 32 (G-32)",
        "meta_object_id": "2022-153B",
        "meta_epoch": "2025-12-11T19:55:38.198208",
        "meta_mean_motion": 1.00270455,
        "meta_eccentricity": 0.0002716,
        "meta_inclination": 0.0095,
        "meta_ra_of_asc_node": 3.9095,
        "meta_arg_of_pericenter": 308.1779,
        "meta_mean_anomaly": 336.5954,
        "meta_ephemeris_type": 0,
        "meta_classification_type": "U",
        "meta_norad_cat_id": 54244,
        "meta_element_set_no": 999,
        "meta_rev_at_epoch": 1126,
        "meta_bstar": 0,
        "meta_mean_motion_dot": -1.66e-06,
        "meta_mean_motion_ddot": 0,
        "tle_line1": "1 54244U 22153B   25345.83030322 -.00000166  00000+0  00000+0 0  9994",
        "tle_line2": "2 54244   0.0095   3.9095 0002716 308.1779 336.5954  1.00270455 11261"
      },
      "geometry": {
        "type": "Point",
        "coordinates": [
          76.91081754152482,
          0.0265763570212366
        ]
      }
    }
  ]
}